[{"OBJECT_NAME":"HJS-7C","OBJECT_ID":"2025-209C","EPOCH":"2026-03-09T21:55:06.546144","MEAN_MOTION":13.41446254,"ECCENTRICITY":0.00014019,"INCLINATION":50.0018,"RA_OF_ASC_NODE":2.3139,"ARG_OF_PERICENTER":201.3866,"MEAN_ANOMALY":158.6953,"EPHEMERIS_TYPE":0,"CLASSIFICATION_TYPE":"U","NORAD_CAT_ID":65619,"ELEMENT_SET_NO":999,"REV_AT_EPOCH":2431,"BSTAR":0.00018804605,"MEAN_MOTION_DOT":-2.3e-7,"MEAN_MOTION_DDOT":0},{"OBJECT_NAME":"DELTA 1 DEB","OBJECT_ID":"1978-026DG","EPOCH":"2026-03-09T21:08:59.955072","MEAN_MOTION":13.34322759,"ECCENTRICITY":0.04185082,"INCLINATION":98.9276,"RA_OF_ASC_NODE":195.183,"ARG_OF_PERICENTER":247.6154,"MEAN_ANOMALY":108.0132,"EPHEMERIS_TYPE":0,"CLASSIFICATION_TYPE":"U","NORAD_CAT_ID":12263,"ELEMENT_SET_NO":999,"REV_AT_EPOCH":15653,"BSTAR":0.0046372598,"MEAN_MOTION_DOT":3.76e-5,"MEAN_MOTION_DDOT":0}]
